Aalto 1
1 42775U 17036L   21175.38518757  .00001143  00000-0  51814-4 0  9994
2 42775  97.2462 221.3652 0014539 144.5958 215.6247 15.22708120222254
URSA MAIOR
1 42776U 17036M   21175.38644881  .00001285  00000-0  57468-4 0  9991
2 42776  97.2476 221.8363 0014336 143.9477 216.2730 15.22973701222273
Max Valier Sat
1 42778U 17036P   21175.39681362  .00001424  00000-0  62158-4 0  9996
2 42778  97.2543 223.7801 0012920 145.0260 215.1829 15.23640384222342
Pegasus
1 42784U 17036V   21175.39500756  .00001739  00000-0  73484-4 0  9993
2 42784  97.2496 224.2533 0012378 147.8202 212.3794 15.24470057222414
NUDATSat
1 42787U 17036Y   21175.58926035  .00002703  00000-0  10634-3 0  9998
2 42787  97.2536 226.8698 0011510 139.2329 220.9773 15.26426450222427
SUCHAI 1
1 42788U 17036Z   21175.39045048  .00002093  00000-0  85857-4 0  9996
2 42788  97.2507 225.2465 0011947 144.8205 215.3825 15.25268349222549
SKCUBE
1 42789U 17036AA  21175.42080543  .00001941  00000-0  80448-4 0  9992
2 42789  97.2500 224.9851 0011860 145.2678 214.9337 15.25001543222455
VZLUSAT 1
1 42790U 17036AB  21175.38676884  .00002797  00000-0  11003-3 0  9998
2 42790  97.2532 226.6625 0011419 140.9574 219.2492 15.26400734222543
VENTA 1
1 42791U 17036AC  21175.13968943  .00001936  00000-0  80399-4 0  9991
2 42791  97.2497 224.7263 0011517 146.4897 213.7072 15.24946915222401
Robusta 1B
1 42792U 17036AD  21175.38858003  .00002036  00000-0  83685-4 0  9997
2 42792  97.2504 225.3360 0011427 145.0738 215.1253 15.25239032222486
D-SAT
1 42794U 17036AF  21175.60367069  .00000522  00000-0  50176-4 0  9998
2 42794  97.4605 195.1166 0124922 201.3826 158.2149 14.91583694218168
TechnoSat
1 42829U 17042E   21175.63376090  .00000218  00000-0  27129-4 0  9995
2 42829  97.4682  44.7902 0015533 119.9046 240.3718 14.91294186214755
QIKCOM-1
1 42983U 98067NF  21175.72698134  .00006562  00000-0  65691-4 0  9992
2 42983  51.6350 222.4177 0003752  21.1329 338.9821 15.66975142208547
AO-91
1 43017U 17073E   21175.29890874  .00000486  00000-0  43483-4 0  9990
2 43017  97.7066  79.0156 0253360 278.1444  79.1102 14.79577152194135
EcAMSat
1 43019U 98067NG  21175.51547942  .00027231  00000-0  14718-3 0  9999
2 43019  51.6353 188.0097 0004140  20.4312 339.6855 15.79895446291308
PICSAT
1 43132U 18004X   21175.46866157  .00001821  00000-0  73835-4 0  9997
2 43132  97.4090 249.9479 0009198 173.1054 187.0312 15.25900468191751
AO-92
1 43137U 18004AC  21175.48365020  .00001569  00000-0  65157-4 0  9994
2 43137  97.4065 249.4432 0008845 175.5603 184.5715 15.25291155191739
TianYi 2
1 43155U 18008A   21175.87504963  .00000718  00000-0  44870-4 0  9996
2 43155  97.4020 240.6198 0015769 306.4822 170.2818 15.12465376189190
Zhou Enlai
1 43156U 18008B   21175.87673422  .00000728  00000-0  45928-4 0  9990
2 43156  97.4068 240.4570 0013026 307.2811 163.5533 15.12072960189132
TianYi 6
1 43158U 18008D   21175.63232451  .00000604  00000-0  39344-4 0  9997
2 43158  97.4009 238.7848 0012382 308.9497 211.5518 15.11498874189029
S-Net D
1 43186U 18014G   21175.70854507  .00000077  00000-0  11681-4 0  9993
2 43186  97.6780  83.1660 0012585  61.1068 299.1415 14.97075982185386
S-Net B
1 43187U 18014H   21175.30743590  .00000139  00000-0  17070-4 0  9996
2 43187  97.6777  82.7383 0012611  62.3674 297.8826 14.97075266185326
S-Net A
1 43188U 18014J   21175.37433112  .00000136  00000-0  16757-4 0  9998
2 43188  97.6781  82.8491 0012599  62.1947 298.0550 14.97074120185335
S-Net C
1 43189U 18014K   21175.70900392  .00000038  00000-0  83257-5 0  9996
2 43189  97.6776  83.1253 0012562  60.9715 299.2763 14.97074086183933
FMN 1
1 43192U 18015A   21175.54320303  .00002981  00000-0  11132-3 0  9991
2 43192  97.4893 310.9450 0013817 211.8288 211.1324 15.28104668188678
Shaonian Xing
1 43199U 18015H   21175.56959698  .00002003  00000-0  76922-4 0  9999
2 43199  97.4677 308.1014 0014881 222.2507 201.0165 15.27572706188731
SurfSat
1 43614U 18070B   21175.35774950  .00004359  00000-0  10148-3 0  9998
2 43614  93.0325 308.8629 0013063 348.0316  12.0627 15.42245176155732
CP-7 DAVE
1 43615U 18070C   21175.31143740  .00004010  00000-0  94272-4 0  9997
2 43615  93.0330 308.7987 0013284 348.0823  12.0116 15.41952673155710
ELFIN-B
1 43616U 18070D   21175.32108834  .00006027  00000-0  12826-3 0  9998
2 43616  93.0283 309.0006 0012801 345.2190  14.8691 15.44899571155835
ELFIN-A
1 43617U 18070E   21175.47303716  .00006862  00000-0  14368-3 0  9991
2 43617  93.0331 309.9169 0011998 341.2857  18.7958 15.45379140155870
STARS-Me Mother
1 43640U 98067PQ  21175.52062029  .01745212  12021-4  54094-3 0  9996
2 43640  51.6113 187.0759 0003675 348.9978  11.0962 16.25874594155463
CubeBel 1
1 43666U 18083E   21175.89202840  .00001274  00000-0  63304-4 0  9998
2 43666  97.4542 204.1659 0015709 138.2299 344.1827 15.19378501147147
Changshagaoxin
1 43669U 18083H   21175.88765253  .00000913  00000-0  47934-4 0  9992
2 43669  97.4455 201.2129 0011915 131.7406 350.3275 15.18147015147011
Ten-Koh
1 43677U 18084G   21175.30301491  .00000174  00000-0  23704-4 0  9997
2 43677  97.9211 298.3578 0016312  17.2963 342.8807 14.90475449144324
PO-101
1 43678U 18084H   21175.29533243  .00000248  00000-0  30412-4 0  9994
2 43678  97.9246 300.6101 0010448  36.3300 323.8531 14.91756358144452
IRVINE 01
1 43693U 18088D   21175.50662235  .00004356  00000-0  16895-3 0  9995
2 43693  85.0335 190.2720 0016459   8.5806 351.5716 15.25678510145518
QO-100
1 43700U 18090A   21175.74199274  .00000140  00000-0  00000 0 0  9995
2 43700   0.0166  32.6307 0001587  78.0392  95.3363  1.00271394  9689
Reaktor Hello World
1 43743U 18096AA  21175.45266561  .00001813  00000-0  67193-4 0  9999
2 43743  97.3860 252.9110 0015557 249.6672 110.2897 15.28838519143203
MinXSS-2
1 43758U 18099A   21175.79331268  .00000489  00000-0  48559-4 0  9995
2 43758  97.6661 246.8338 0015996  29.4580 330.7539 14.96070278139610
AO-95
1 43770U 18099N   21175.47617363  .00000821  00000-0  79448-4 0  9998
2 43770  97.6648 245.5082 0015391  39.9106 320.3244 14.95337099139502
RANGE-B
1 43772U 18099Q   21175.77069559  .00000103  00000-0  14418-4 0  9990
2 43772  97.6733 246.8023 0014666  26.3956 333.8009 14.95641188139555
RANGE-A
1 43773U 18099R   21175.74981579  .00000504  00000-0  50957-4 0  9996
2 43773  97.6582 245.0919 0014135  27.1475 333.0482 14.95227057139539
MOVE-II
1 43780U 18099Y   21175.43477513  .00000274  00000-0  29522-4 0  9996
2 43780  97.6667 246.0096 0014267  36.9921 323.2281 14.95949988139518
SNUSat 2
1 43782U 18099AA  21175.44082330 -.00000079  00000-0 -19705-5 0  9996
2 43782  97.6646 245.8174 0013302  26.7928 333.3978 14.95577010139512
SnugLite
1 43784U 18099AC  21175.44864130  .00000132  00000-0  16947-4 0  9996
2 43784  97.6608 245.5498 0015697  33.0949 327.1251 14.95702212139532
ITASat 1
1 43786U 18099AE  21175.72851979  .00000451  00000-0  45629-4 0  9999
2 43786  97.6664 246.4381 0015748  31.8997 328.3174 14.95627417139577
EAGLET 1
1 43790U 18099AJ  21175.76130971  .00000279  00000-0  29926-4 0  9990
2 43790  97.6659 246.8851 0014345  36.1092 324.1095 14.95980232139302
ESEO
1 43792U 18099AL  21175.74730187  .00000559  00000-0  55232-4 0  9995
2 43792  97.6623 246.4583 0014098  33.7875 326.4242 14.95747533139359
CSIM
1 43793U 18099AM  21175.76804675  .00000302  00000-0  31546-4 0  9990
2 43793  97.6656 246.8778 0013639  30.0850 330.1153 14.96613673139361
Astrocast 0.1
1 43798U 18099AS  21175.50932178 -.00000069  00000-0 -10657-5 0  9990
2 43798  97.6662 246.8372 0012707  17.5024 342.6632 14.96205834139570
JO-97
1 43803U 18099AX  21175.75806709  .00000465  00000-0  46596-4 0  9992
2 43803  97.6631 246.2179 0015886  32.0059 328.2123 14.95880831139584
Suomi 100
1 43804U 18099AY  21175.76370051  .00000156  00000-0  19092-4 0  9998
2 43804  97.6627 246.1897 0015961  31.7646 328.4534 14.95850800139590
Al Farabi 2
1 43805U 18099AZ  21175.62992309  .00001010  00000-0  94794-4 0  9992
2 43805  97.6636 246.2829 0015950  32.7290 327.4914 14.96077047139586
CHOMPTT
1 43855U 18104G   21175.47951183  .00001589  00000-0  63586-4 0  9998
2 43855  85.0372 288.8451 0019126 117.3639 242.9554 15.24016129140161
ISAT
1 43879U 18111D   21175.28191859  .00000382  00000-0  38496-4 0  9999
2 43879  97.6849  82.4213 0014490  81.4866 278.8318 14.96640838134078
UWE-4
1 43880U 18111E   21175.53625505  .00000345  00000-0  35027-4 0  9995
2 43880  97.6864  83.1490 0013566  81.2769 278.9989 14.96879153136144
Sparrow
1 43881U 18111F   21175.70724729  .00000437  00000-0  43025-4 0  9992
2 43881  97.6883  83.4502 0014233  77.9790 282.3026 14.96943230134171
Lume 1
1 43908U 18111AJ  21175.21305330  .00001413  00000-0  57008-4 0  9992
2 43908  97.2328  69.7081 0018614 267.7103  92.2005 15.26268806138705
FO-98
1 43933U 19003B   21175.37492900  .00010067  00000-0  37960-3 0  9997
2 43933  97.1820 216.5182 0015922  16.5558 343.6198 15.27126179135166
FO-99
1 43937U 19003F   21175.33935852  .00001877  00000-0  75684-4 0  9990
2 43937  97.1755 218.2454 0022767 352.8067   7.2842 15.25793077135315
MYSat 1
1 44045U 18092F   21175.47922268  .00004968  00000-0  13218-3 0  9998
2 44045  51.6387  31.8947 0009771 228.6437 131.3708 15.40026663132548
AstroCast 0.2
1 44083U 19018F   21175.66894677  .00001514  00000-0  68048-4 0  9998
2 44083  97.3723 236.6144 0011428 312.3515  47.6753 15.22615547123998
AISTechSat 3
1 44103U 19018AB  21175.82851284  .00001041  00000-0  45714-4 0  9996
2 44103  97.3594 237.1634 0011938 324.1601 147.3800 15.24100457124139
AISat 1
1 44104U 19018AC  21175.46105883  .00001053  00000-0  35037-4 0  9994
2 44104  97.4256 252.7459 0055740 331.9770  27.8473 15.32106132124746
Raavana-1
1 44329U 98067QE  21175.76166610  .00050352  00000-0  28672-3 0  9994
2 44329  51.6342 247.3284 0006115 333.2681  26.8004 15.78412369115311
Uguisu
1 44330U 98067QF  21175.69902810  .00047369  00000-0  27765-3 0  9994
2 44330  51.6299 248.3102 0006140 330.1908  29.8742 15.77791027115277
NepaliSat-1
1 44331U 98067QG  21174.49162040  .00052803  00000-0  30357-3 0  9995
2 44331  51.6323 253.7500 0005954 327.2049  32.8582 15.78179664115109
